CCSDS_OMM_VERS = 2.0
CREATION_DATE  = 
ORIGINATOR     = 

OBJECT_NAME    = STARLINK-37091
OBJECT_ID      = 2026-050AA
CENTER_NAME    = EARTH
REF_FRAME      = TEME
TIME_SYSTEM    = UTC
MEAN_ELEMENT_THEORY = SGP/SGP4

EPOCH          = 2026-03-26T19:15:48.826080
MEAN_MOTION    = 15.81012446
ECCENTRICITY   = .0000708
INCLINATION    = 53.1590
RA_OF_ASC_NODE = 195.8571
ARG_OF_PERICENTER = 54.8014
MEAN_ANOMALY   = 305.3075

EPHEMERIS_TYPE = 0
CLASSIFICATION_TYPE = U
NORAD_CAT_ID   = 68191
ELEMENT_SET_NO = 999
REV_AT_EPOCH   = 318
BSTAR          = .15157944E-2
MEAN_MOTION_DOT = .31152E-2
MEAN_MOTION_DDOT = 0

CCSDS_OMM_VERS = 2.0
CREATION_DATE  = 
ORIGINATOR     = 

OBJECT_NAME    = STARLINK-37098
OBJECT_ID      = 2026-050AB
CENTER_NAME    = EARTH
REF_FRAME      = TEME
TIME_SYSTEM    = UTC
MEAN_ELEMENT_THEORY = SGP/SGP4

EPOCH          = 2026-03-26T19:14:44.215296
MEAN_MOTION    = 15.80997044
ECCENTRICITY   = .00010708
INCLINATION    = 53.1594
RA_OF_ASC_NODE = 195.8523
ARG_OF_PERICENTER = 97.8005
MEAN_ANOMALY   = 262.3140

EPHEMERIS_TYPE = 0
CLASSIFICATION_TYPE = U
NORAD_CAT_ID   = 68192
ELEMENT_SET_NO = 999
REV_AT_EPOCH   = 318
BSTAR          = .14033269E-2
MEAN_MOTION_DOT = .287326E-2
MEAN_MOTION_DDOT = 0

CCSDS_OMM_VERS = 2.0
CREATION_DATE  = 
ORIGINATOR     = 

OBJECT_NAME    = STARLINK-37090
OBJECT_ID      = 2026-050AC
CENTER_NAME    = EARTH
REF_FRAME      = TEME
TIME_SYSTEM    = UTC
MEAN_ELEMENT_THEORY = SGP/SGP4

EPOCH          = 2026-03-26T19:12:34.995456
MEAN_MOTION    = 15.81086794
ECCENTRICITY   = .00011273
INCLINATION    = 53.1589
RA_OF_ASC_NODE = 195.8412
ARG_OF_PERICENTER = 357.1760
MEAN_ANOMALY   = 2.9256

EPHEMERIS_TYPE = 0
CLASSIFICATION_TYPE = U
NORAD_CAT_ID   = 68193
ELEMENT_SET_NO = 999
REV_AT_EPOCH   = 318
BSTAR          = .2155883E-2
MEAN_MOTION_DOT = .452301E-2
MEAN_MOTION_DDOT = 0

CCSDS_OMM_VERS = 2.0
CREATION_DATE  = 
ORIGINATOR     = 

OBJECT_NAME    = STARLINK-37093
OBJECT_ID      = 2026-050AD
CENTER_NAME    = EARTH
REF_FRAME      = TEME
TIME_SYSTEM    = UTC
MEAN_ELEMENT_THEORY = SGP/SGP4

EPOCH          = 2026-03-26T19:17:58.229952
MEAN_MOTION    = 15.81007014
ECCENTRICITY   = .00006585
INCLINATION    = 53.1596
RA_OF_ASC_NODE = 195.8669
ARG_OF_PERICENTER = 64.9159
MEAN_ANOMALY   = 295.1932

EPHEMERIS_TYPE = 0
CLASSIFICATION_TYPE = U
NORAD_CAT_ID   = 68194
ELEMENT_SET_NO = 999
REV_AT_EPOCH   = 318
BSTAR          = .12388993E-2
MEAN_MOTION_DOT = .252669E-2
MEAN_MOTION_DDOT = 0

CCSDS_OMM_VERS = 2.0
CREATION_DATE  = 
ORIGINATOR     = 

OBJECT_NAME    = STARLINK-37058
OBJECT_ID      = 2026-050AE
CENTER_NAME    = EARTH
REF_FRAME      = TEME
TIME_SYSTEM    = UTC
MEAN_ELEMENT_THEORY = SGP/SGP4

EPOCH          = 2026-03-26T19:13:39.412704
MEAN_MOTION    = 15.80990520
ECCENTRICITY   = .00009181
INCLINATION    = 53.1591
RA_OF_ASC_NODE = 195.8469
ARG_OF_PERICENTER = 106.1273
MEAN_ANOMALY   = 253.9851

EPHEMERIS_TYPE = 0
CLASSIFICATION_TYPE = U
NORAD_CAT_ID   = 68195
ELEMENT_SET_NO = 999
REV_AT_EPOCH   = 162
BSTAR          = .13598134E-2
MEAN_MOTION_DOT = .278009E-2
MEAN_MOTION_DDOT = 0

CCSDS_OMM_VERS = 2.0
CREATION_DATE  = 
ORIGINATOR     = 

OBJECT_NAME    = YAOGAN-50 02
OBJECT_ID      = 2026-051A
CENTER_NAME    = EARTH
REF_FRAME      = TEME
TIME_SYSTEM    = UTC
MEAN_ELEMENT_THEORY = SGP/SGP4

EPOCH          = 2026-03-26T23:31:32.711808
MEAN_MOTION    = 13.83268228
ECCENTRICITY   = .00010868
INCLINATION    = 141.9870
RA_OF_ASC_NODE = 290.5947
ARG_OF_PERICENTER = 240.8059
MEAN_ANOMALY   = 119.2552

EPHEMERIS_TYPE = 0
CLASSIFICATION_TYPE = U
NORAD_CAT_ID   = 68196
ELEMENT_SET_NO = 999
REV_AT_EPOCH   = 160
BSTAR          = .70440418E-4
MEAN_MOTION_DOT = .264E-5
MEAN_MOTION_DDOT = 0

CCSDS_OMM_VERS = 2.0
CREATION_DATE  = 
ORIGINATOR     = 

OBJECT_NAME    = CZ-6A R/B
OBJECT_ID      = 2026-051B
CENTER_NAME    = EARTH
REF_FRAME      = TEME
TIME_SYSTEM    = UTC
MEAN_ELEMENT_THEORY = SGP/SGP4

EPOCH          = 2026-03-26T10:41:53.060928
MEAN_MOTION    = 14.56367185
ECCENTRICITY   = .01863331
INCLINATION    = 142.0321
RA_OF_ASC_NODE = 293.4840
ARG_OF_PERICENTER = 171.2650
MEAN_ANOMALY   = 189.1378

EPHEMERIS_TYPE = 0
CLASSIFICATION_TYPE = U
NORAD_CAT_ID   = 68197
ELEMENT_SET_NO = 999
REV_AT_EPOCH   = 160
BSTAR          = .1200497E-3
MEAN_MOTION_DOT = .982E-5
MEAN_MOTION_DDOT = 0

CCSDS_OMM_VERS = 2.0
CREATION_DATE  = 
ORIGINATOR     = 

OBJECT_NAME    = 2026-052A
OBJECT_ID      = 2026-052A
CENTER_NAME    = EARTH
REF_FRAME      = TEME
TIME_SYSTEM    = UTC
MEAN_ELEMENT_THEORY = SGP/SGP4

EPOCH          = 2026-03-26T14:56:36.140064
MEAN_MOTION    = 15.09879016
ECCENTRICITY   = .00129773
INCLINATION    = 97.5376
RA_OF_ASC_NODE = 161.7059
ARG_OF_PERICENTER = 225.7685
MEAN_ANOMALY   = 134.2480

EPHEMERIS_TYPE = 0
CLASSIFICATION_TYPE = U
NORAD_CAT_ID   = 68198
ELEMENT_SET_NO = 999
REV_AT_EPOCH   = 158
BSTAR          = .3152876E-4
MEAN_MOTION_DOT = .448E-5
MEAN_MOTION_DDOT = 0

CCSDS_OMM_VERS = 2.0
CREATION_DATE  = 
ORIGINATOR     = 

OBJECT_NAME    = YUXING-3 06
OBJECT_ID      = 2026-052B
CENTER_NAME    = EARTH
REF_FRAME      = TEME
TIME_SYSTEM    = UTC
MEAN_ELEMENT_THEORY = SGP/SGP4

EPOCH          = 2026-03-26T22:52:12.364896
MEAN_MOTION    = 15.10068025
ECCENTRICITY   = .00119696
INCLINATION    = 97.5372
RA_OF_ASC_NODE = 162.0326
ARG_OF_PERICENTER = 226.5487
MEAN_ANOMALY   = 133.4748

EPHEMERIS_TYPE = 0
CLASSIFICATION_TYPE = U
NORAD_CAT_ID   = 68199
ELEMENT_SET_NO = 999
REV_AT_EPOCH   = 163
BSTAR          = .34314701E-3
MEAN_MOTION_DOT = .5531E-4
MEAN_MOTION_DDOT = 0

CCSDS_OMM_VERS = 2.0
CREATION_DATE  = 
ORIGINATOR     = 

OBJECT_NAME    = 2026-052C
OBJECT_ID      = 2026-052C
CENTER_NAME    = EARTH
REF_FRAME      = TEME
TIME_SYSTEM    = UTC
MEAN_ELEMENT_THEORY = SGP/SGP4

EPOCH          = 2026-03-26T22:50:50.629632
MEAN_MOTION    = 15.10196340
ECCENTRICITY   = .0011707
INCLINATION    = 97.5369
RA_OF_ASC_NODE = 162.0351
ARG_OF_PERICENTER = 229.1129
MEAN_ANOMALY   = 130.9087

EPHEMERIS_TYPE = 0
CLASSIFICATION_TYPE = U
NORAD_CAT_ID   = 68200
ELEMENT_SET_NO = 999
REV_AT_EPOCH   = 162
BSTAR          = .31681884E-3
MEAN_MOTION_DOT = .512E-4
MEAN_MOTION_DDOT = 0

CCSDS_OMM_VERS = 2.0
CREATION_DATE  = 
ORIGINATOR     = 

OBJECT_NAME    = 2026-052D
OBJECT_ID      = 2026-052D
CENTER_NAME    = EARTH
REF_FRAME      = TEME
TIME_SYSTEM    = UTC
MEAN_ELEMENT_THEORY = SGP/SGP4

EPOCH          = 2026-03-26T22:49:09.600384
MEAN_MOTION    = 15.10391770
ECCENTRICITY   = .00108844
INCLINATION    = 97.5371
RA_OF_ASC_NODE = 162.0334
ARG_OF_PERICENTER = 225.2002
MEAN_ANOMALY   = 134.8343

EPHEMERIS_TYPE = 0
CLASSIFICATION_TYPE = U
NORAD_CAT_ID   = 68201
ELEMENT_SET_NO = 999
REV_AT_EPOCH   = 163
BSTAR          = .49572004E-3
MEAN_MOTION_DOT = .8092E-4
MEAN_MOTION_DDOT = 0

CCSDS_OMM_VERS = 2.0
CREATION_DATE  = 
ORIGINATOR     = 

OBJECT_NAME    = 2026-052E
OBJECT_ID      = 2026-052E
CENTER_NAME    = EARTH
REF_FRAME      = TEME
TIME_SYSTEM    = UTC
MEAN_ELEMENT_THEORY = SGP/SGP4

EPOCH          = 2026-03-26T22:49:07.883616
MEAN_MOTION    = 15.10392158
ECCENTRICITY   = .00107246
INCLINATION    = 97.5375
RA_OF_ASC_NODE = 162.0348
ARG_OF_PERICENTER = 229.6058
MEAN_ANOMALY   = 130.4236

EPHEMERIS_TYPE = 0
CLASSIFICATION_TYPE = U
NORAD_CAT_ID   = 68202
ELEMENT_SET_NO = 999
REV_AT_EPOCH   = 163
BSTAR          = .48300771E-3
MEAN_MOTION_DOT = .7882E-4
MEAN_MOTION_DDOT = 0

