STARLINK-37091          
1 68191U 26050AA  26085.80264845  .00311520  00000+0  15158-2 0  9999
2 68191  53.1590 195.8571 0000708  54.8014 305.3075 15.81012446  3180
STARLINK-37098          
1 68192U 26050AB  26085.80190064  .00287326  00000+0  14033-2 0  9998
2 68192  53.1594 195.8523 0001070  97.8005 262.3140 15.80997044  3182
STARLINK-37090          
1 68193U 26050AC  26085.80040504  .00452301  00000+0  21559-2 0  9990
2 68193  53.1589 195.8412 0001127 357.1760   2.9256 15.81086794  3185
STARLINK-37093          
1 68194U 26050AD  26085.80414618  .00252669  00000+0  12389-2 0  9998
2 68194  53.1596 195.8669 0000658  64.9159 295.1932 15.81007014  3186
STARLINK-37058          
1 68195U 26050AE  26085.80115061  .00278009  00000+0  13598-2 0  9998
2 68195  53.1591 195.8469 0000918 106.1273 253.9851 15.80990520  1626
YAOGAN-50 02            
1 68196U 26051A   26085.98023972  .00000264  00000+0  70440-4 0  9995
2 68196 141.9870 290.5947 0001086 240.8059 119.2552 13.83268228  1606
CZ-6A R/B               
1 68197U 26051B   26085.44575302  .00000982  00000+0  12005-3 0  9995
2 68197 142.0321 293.4840 0186333 171.2650 189.1378 14.56367185  1602
2026-052A               
1 68198U 26052A   26085.62264051  .00000448  00000+0  31529-4 0  9993
2 68198  97.5376 161.7059 0012977 225.7685 134.2480 15.09879016  1583
YUXING-3 06             
1 68199U 26052B   26085.95292089  .00005531  00000+0  34315-3 0  9995
2 68199  97.5372 162.0326 0011969 226.5487 133.4748 15.10068025  1636
2026-052C               
1 68200U 26052C   26085.95197488  .00005120  00000+0  31682-3 0  9993
2 68200  97.5369 162.0351 0011707 229.1129 130.9087 15.10196340  1624
2026-052D               
1 68201U 26052D   26085.95080556  .00008092  00000+0  49572-3 0  9999
2 68201  97.5371 162.0334 0010884 225.2002 134.8343 15.10391770  1634
2026-052E               
1 68202U 26052E   26085.95078569  .00007882  00000+0  48301-3 0  9996
2 68202  97.5375 162.0348 0010724 229.6058 130.4236 15.10392158  1630
